{"fetched_at":"2026-03-29T16:36:15Z","count":15609,"tles":[{"name":"TIANHUI 1-04","line1":"1 49049U 21067A   26087.53887302  .00000273  00000+0  14329-4 0  9995","line2":"2 49049  97.2828 158.0470 0002066 130.7670 229.3747 15.23384736259313","category":"Other"}]}